#aV2024 12 14  0  0  0.00000000     288 DD+AD WGS84 FIT  NGA
## 2344 518400.00000000   300.00000000 60658 0.0000000000000
+   31     2  3  4  5  6  7  8  9 10 11 12 13 14 15 16 17 18
+         19 20 21 22 23 24 25 26 27 28 29 30 31 32  0  0  0
+          0  0  0  0  0  0  0  0  0  0  0  0  0  0  0  0  0
+          0  0  0  0  0  0  0  0  0  0  0  0  0  0  0  0  0
+          0  0  0  0  0  0  0  0  0  0  0  0  0  0  0  0  0
++         2  2  2  2  2  2  2  2  2  2  2  2  2  2  2  2  2
++         2  2  2  2  2  2  2  2  2  2  2  2  2  2  0  0  0
++         0  0  0  0  0  0  0  0  0  0  0  0  0  0  0  0  0
++         0  0  0  0  0  0  0  0  0  0  0  0  0  0  0  0  0
++         0  0  0  0  0  0  0  0  0  0  0  0  0  0  0  0  0
%c cc cc ccc ccc cccc cccc cccc cccc ccccc ccccc ccccc ccccc
%c cc cc ccc ccc cccc cccc cccc cccc ccccc ccccc ccccc ccccc
%f  0.0000000  0.000000000  0.00000000000  0.000000000000000
%f  0.0000000  0.000000000  0.00000000000  0.000000000000000
%i    0    0    0    0      0      0      0      0         0
%i    0    0    0    0      0      0      0      0         0
/*      NGA, ST. LOUIS,MO.                                  
/*   EPHEMERIS COMPUTED FROM 2 DAYS OF DATA                 
/*   EPOCHA v9 SMOOTHER                                     
/*   G2296 IERS2010 SATIGS SATAPC                           
*  2024 12 14  6 10  0.00000000
P  2   6804.096196  13783.661987 -21232.622151   -292.423871                    
V  2 -27626.755434   4639.319197  -5352.143614      0.088578                    
P  3  12135.819689  23338.298997  -4248.143978    624.081599                    
V  3  -4365.709801  -3290.380926 -31669.714834      0.086795                    
P  4   3414.467515  19499.750148  17649.150558    495.556849                    
V  4 -11994.064288  19015.644821 -18853.777907      0.061832                    
P  5   -976.350682 -20385.332333  16787.681318   -195.953283                    
V  5  14230.050994  16392.564566  20581.024269     -0.011381                    
P  6  25087.158750  -5798.439932   6844.536191    -42.771640                    
V  6   8616.584837   1272.410798 -30720.209643     -0.287461                    
P  7  21838.601303   8248.349326  13613.787935    -15.686682                    
V  7 -16085.287313   3135.854362  24445.663411      0.013148                    
P  8  -4302.030559  24618.001572  -8417.597796    437.994363                    
V  8  -7272.027421   8446.389132  29291.744978      0.090176                    
P  9  10829.155941  11795.065562  21086.628757    486.247869                    
V  9 -11873.529836  24265.550089  -7508.497014      0.161904                    
P 10 -17088.566630  -1653.424034 -20134.970914   -233.729473                    
V 10 -13814.748096 -21929.759318  13047.317317     -0.153485                    
P 11  16052.724548 -12287.996112  17234.097147   -752.596118                    
V 11  21850.385430   1165.447497 -19625.162374     -0.003540                    
P 12  -7998.631829 -24308.146898  -7494.025217   -558.241848                    
V 12   6761.425263   6626.210984 -29813.289315     -0.023502                    
P 13  13337.901973 -22697.914075  -2559.458448    689.885775                    
V 13   3841.219229   -994.114321  31955.489896      0.014315                    
P 14  18857.715757   5246.707188 -18012.301420    559.784819                    
V 14  10966.198465  20207.309395  17088.697369      0.076501                    
P 15    629.503807 -25043.473330  -9122.976510    239.360387                    
V 15   6273.200866  -9534.618656  28375.723601      0.045526                    
P 16  -5730.027448  17072.739070  19013.107061   -103.748508                    
V 16 -13582.778599 -21111.485956  15035.772367      0.095999                    
P 17  17758.567753  -5124.734628 -18735.595355    519.849154                    
V 17 -10926.653894  22057.506276 -15844.057106     -0.159723                    
P 18 -23410.226650  -6376.511639  11101.134911   -660.318218                    
V 18  13835.783538  -2595.065135  27543.386652      0.004443                    
P 19  18798.281744 -13674.758842 -12575.422341    573.754076                    
V 19  -6333.674860  14794.636919 -26266.750787      0.042280                    
P 20   8829.533271 -12791.857513  21631.230479    367.910273                    
V 20  19220.903541  19347.909059   3474.670077     -0.003125                    
P 21     75.167954  15126.951502 -21364.934553     95.890536                    
V 21 -27914.342526   3781.536542   3607.313782      0.026935                    
P 22  15234.466262  -2980.920136 -21125.725350    -86.217715                    
V 22  12777.760279  24686.982924   5930.412217     -0.024599                    
P 23 -19413.970704 -14508.019473 -11090.693628    383.147777                    
V 23  -6766.305627 -12408.602496  27749.444722      0.077325                    
P 24  -4621.568411 -15432.173553 -21603.575628   -473.599903                    
V 24  26045.301383  -4521.243829  -1990.627945      0.030710                    
P 25 -17457.893380 -19701.452389   4129.472462    498.117616                    
V 25   -842.479257  -6315.335551 -30750.935803     -0.004187                    
P 26 -13734.423287   8038.999122  21106.985206     -8.208634                    
V 26 -17026.115119 -21365.299924  -2529.108839     -0.140608                    
P 27 -12401.836435  23121.876307   1799.133809    -34.194785                    
V 27  -1781.129683  -3814.787254  31902.151487      0.003293                    
P 28 -25555.531792   5698.884689   4462.985674   -507.616225                    
V 28  -5931.935576  -2177.319930 -31078.787203     -0.107504                    
P 29  -9691.688983 -12439.508255  21310.877005   -556.084443                    
V 29  14259.493198 -23120.933639  -7117.058024      0.031731                    
P 30  26604.374281    -52.684260   2508.027348   -261.696926                    
V 30  -2744.825402   3570.758219  30784.570960      0.081163                    
P 31 -20541.396450  10408.942623  13299.026565   -220.005394                    
V 31 -17254.893715  -1412.493677 -24720.925389      0.007411                    
P 32 -17657.216871   9293.010177 -17203.843882   -559.309516                    
V 32   7938.040651 -20980.769630 -19431.033748      0.060698                    
EOF
